[{"OBJECT_NAME":"STARLINK-32788","OBJECT_ID":"2025-003R","EPOCH":"2026-03-09T22:59:49.827840","MEAN_MOTION":15.2759098,"ECCENTRICITY":7.027e-5,"INCLINATION":42.9941,"RA_OF_ASC_NODE":287.3671,"ARG_OF_PERICENTER":7.8344,"MEAN_ANOMALY":352.2518,"EPHEMERIS_TYPE":0,"CLASSIFICATION_TYPE":"U","NORAD_CAT_ID":62502,"ELEMENT_SET_NO":999,"REV_AT_EPOCH":6659,"BSTAR":0.00084614204,"MEAN_MOTION_DOT":0.00023103,"MEAN_MOTION_DDOT":0},{"OBJECT_NAME":"KUIPER-00276","OBJECT_ID":"2026-030AG","EPOCH":"2026-03-09T22:00:01.999584","MEAN_MOTION":15.30162454,"ECCENTRICITY":0.00186471,"INCLINATION":51.8824,"RA_OF_ASC_NODE":218.7283,"ARG_OF_PERICENTER":66.9346,"MEAN_ANOMALY":101.1527,"EPHEMERIS_TYPE":0,"CLASSIFICATION_TYPE":"U","NORAD_CAT_ID":67794,"ELEMENT_SET_NO":999,"REV_AT_EPOCH":482,"BSTAR":0.0021152378,"MEAN_MOTION_DOT":0.00063116,"MEAN_MOTION_DDOT":0}]
